{
  "type": "FeatureCollection",
  "features": [
    {
      "type": "Feature",
      "properties": {
        "norad_id": 34589,
        "name": "COSMOS 2251 DEB",
        "group": "cosmos-2251-debris",
        "lat": 60.59804918020489,
        "lon": -166.6106920204451,
        "alt_km": 1049.0140505562767,
        "timestamp": "2025-12-19T16:54:44.657950+00:00",
        "meta_object_name": "COSMOS 2251 DEB",
        "meta_object_id": "1993-036WB",
        "meta_epoch": "2025-12-18T10:58:28.293888",
        "meta_mean_motion": 13.86058444,
        "meta_eccentricity": 0.02521011,
        "meta_inclination": 73.9252,
        "meta_ra_of_asc_node": 46.2894,
        "meta_arg_of_pericenter": 348.4727,
        "meta_mean_anomaly": 22.1754,
        "meta_ephemeris_type": 0,
        "meta_classification_type": "U",
        "meta_norad_cat_id": 34589,
        "meta_element_set_no": 999,
        "meta_rev_at_epoch": 84791,
        "meta_bstar": 0.0002886968,
        "meta_mean_motion_dot": 4.02e-06,
        "meta_mean_motion_ddot": 0,
        "tle_line1": "1 34589U 93036WB  25352.45727192  .00000402  00000+0  28870-3 0  9997",
        "tle_line2": "2 34589  73.9252  46.2894 0252101 348.4727  22.1754 13.86058444847911"
      },
      "geometry": {
        "type": "Point",
        "coordinates": [
          -166.6106920204451,
          60.59804918020489
        ]
      }
    },
    {
      "type": "Feature",
      "properties": {
        "norad_id": 34590,
        "name": "COSMOS 2251 DEB",
        "group": "cosmos-2251-debris",
        "lat": 18.367208459932044,
        "lon": -45.174183817117225,
        "alt_km": 683.8982432941948,
        "timestamp": "2025-12-19T16:54:44.657961+00:00",
        "meta_object_name": "COSMOS 2251 DEB",
        "meta_object_id": "1993-036WC",
        "meta_epoch": "2025-12-19T05:33:46.179072",
        "meta_mean_motion": 14.5483298,
        "meta_eccentricity": 0.00679971,
        "meta_inclination": 74.0441,
        "meta_ra_of_asc_node": 310.2692,
        "meta_arg_of_pericenter": 77.9732,
        "meta_mean_anomaly": 346.1753,
        "meta_ephemeris_type": 0,
        "meta_classification_type": "U",
        "meta_norad_cat_id": 34590,
        "meta_element_set_no": 999,
        "meta_rev_at_epoch": 89215,
        "meta_bstar": 0.00010011039,
        "meta_mean_motion_dot": 4.13e-06,
        "meta_mean_motion_ddot": 0,
        "tle_line1": "1 34590U 93036WC  25353.23178448  .00000413  00000+0  10011-3 0  9990",
        "tle_line2": "2 34590  74.0441 310.2692 0067997  77.9732 346.1753 14.54832980892157"
      },
      "geometry": {
        "type": "Point",
        "coordinates": [
          -45.174183817117225,
          18.367208459932044
        ]
      }
    },
    {
      "type": "Feature",
      "properties": {
        "norad_id": 34609,
        "name": "COSMOS 2251 DEB",
        "group": "cosmos-2251-debris",
        "lat": 41.69543183220166,
        "lon": 109.06815377693735,
        "alt_km": 816.7636834379546,
        "timestamp": "2025-12-19T16:54:44.657971+00:00",
        "meta_object_name": "COSMOS 2251 DEB",
        "meta_object_id": "1993-036WE",
        "meta_epoch": "2025-12-19T06:43:05.056896",
        "meta_mean_motion": 14.21814448,
        "meta_eccentricity": 0.01454694,
        "meta_inclination": 73.7337,
        "meta_ra_of_asc_node": 94.7686,
        "meta_arg_of_pericenter": 313.2418,
        "meta_mean_anomaly": 75.7069,
        "meta_ephemeris_type": 0,
        "meta_classification_type": "U",
        "meta_norad_cat_id": 34609,
        "meta_element_set_no": 999,
        "meta_rev_at_epoch": 86725,
        "meta_bstar": 0.00051746651,
        "meta_mean_motion_dot": 1.24e-05,
        "meta_mean_motion_ddot": 0,
        "tle_line1": "1 34609U 93036WE  25353.27991964  .00001240  00000+0  51747-3 0  9991",
        "tle_line2": "2 34609  73.7337  94.7686 0145469 313.2418  75.7069 14.21814448867254"
      },
      "geometry": {
        "type": "Point",
        "coordinates": [
          109.06815377693735,
          41.69543183220166
        ]
      }
    },
    {
      "type": "Feature",
      "properties": {
        "norad_id": 34610,
        "name": "COSMOS 2251 DEB",
        "group": "cosmos-2251-debris",
        "lat": -17.99607999955041,
        "lon": 75.44816828596403,
        "alt_km": 1004.735953703047,
        "timestamp": "2025-12-19T16:54:44.657981+00:00",
        "meta_object_name": "COSMOS 2251 DEB",
        "meta_object_id": "1993-036WF",
        "meta_epoch": "2025-12-16T19:43:22.866816",
        "meta_mean_motion": 14.07083274,
        "meta_eccentricity": 0.01805005,
        "meta_inclination": 74.0182,
        "meta_ra_of_asc_node": 255.1605,
        "meta_arg_of_pericenter": 24.866,
        "meta_mean_anomaly": 336.104,
        "meta_ephemeris_type": 0,
        "meta_classification_type": "U",
        "meta_norad_cat_id": 34610,
        "meta_element_set_no": 999,
        "meta_rev_at_epoch": 85617,
        "meta_bstar": 0.0012903668,
        "meta_mean_motion_dot": 2.479e-05,
        "meta_mean_motion_ddot": 0,
        "tle_line1": "1 34610U 93036WF  25350.82179244  .00002479  00000+0  12904-2 0  9996",
        "tle_line2": "2 34610  74.0182 255.1605 0180500  24.8660 336.1040 14.07083274856172"
      },
      "geometry": {
        "type": "Point",
        "coordinates": [
          75.44816828596403,
          -17.99607999955041
        ]
      }
    },
    {
      "type": "Feature",
      "properties": {
        "norad_id": 34611,
        "name": "COSMOS 2251 DEB",
        "group": "cosmos-2251-debris",
        "lat": 17.776448867064758,
        "lon": 92.74562307923061,
        "alt_km": 667.1031731729372,
        "timestamp": "2025-12-19T16:54:44.657992+00:00",
        "meta_object_name": "COSMOS 2251 DEB",
        "meta_object_id": "1993-036WG",
        "meta_epoch": "2025-12-19T05:29:00.780864",
        "meta_mean_motion": 14.6961717,
        "meta_eccentricity": 0.00219892,
        "meta_inclination": 74.0542,
        "meta_ra_of_asc_node": 88.4074,
        "meta_arg_of_pericenter": 127.6644,
        "meta_mean_anomaly": 252.8321,
        "meta_ephemeris_type": 0,
        "meta_classification_type": "U",
        "meta_norad_cat_id": 34611,
        "meta_element_set_no": 999,
        "meta_rev_at_epoch": 88486,
        "meta_bstar": 0.0010179566,
        "meta_mean_motion_dot": 6.048e-05,
        "meta_mean_motion_ddot": 0,
        "tle_line1": "1 34611U 93036WG  25353.22848126  .00006048  00000+0  10180-2 0  9996",
        "tle_line2": "2 34611  74.0542  88.4074 0021989 127.6644 252.8321 14.69617170884868"
      },
      "geometry": {
        "type": "Point",
        "coordinates": [
          92.74562307923061,
          17.776448867064758
        ]
      }
    },
    {
      "type": "Feature",
      "properties": {
        "norad_id": 34613,
        "name": "COSMOS 2251 DEB",
        "group": "cosmos-2251-debris",
        "lat": 67.49990075606215,
        "lon": 41.92851172879064,
        "alt_km": 718.5421153212565,
        "timestamp": "2025-12-19T16:54:44.658002+00:00",
        "meta_object_name": "COSMOS 2251 DEB",
        "meta_object_id": "1993-036WJ",
        "meta_epoch": "2025-12-19T05:20:33.741600",
        "meta_mean_motion": 14.26470363,
        "meta_eccentricity": 0.01103446,
        "meta_inclination": 73.9636,
        "meta_ra_of_asc_node": 266.7803,
        "meta_arg_of_pericenter": 96.9169,
        "meta_mean_anomaly": 54.2263,
        "meta_ephemeris_type": 0,
        "meta_classification_type": "U",
        "meta_norad_cat_id": 34613,
        "meta_element_set_no": 999,
        "meta_rev_at_epoch": 86555,
        "meta_bstar": 0.0008271351,
        "meta_mean_motion_dot": 2.099e-05,
        "meta_mean_motion_ddot": 0,
        "tle_line1": "1 34613U 93036WJ  25353.22261275  .00002099  00000+0  82714-3 0  9997",
        "tle_line2": "2 34613  73.9636 266.7803 0110344  96.9169  54.2263 14.26470363865555"
      },
      "geometry": {
        "type": "Point",
        "coordinates": [
          41.92851172879064,
          67.49990075606215
        ]
      }
    },
    {
      "type": "Feature",
      "properties": {
        "norad_id": 34614,
        "name": "COSMOS 2251 DEB",
        "group": "cosmos-2251-debris",
        "lat": 21.052096955348542,
        "lon": 144.96061893995318,
        "alt_km": 970.6638173614292,
        "timestamp": "2025-12-19T16:54:44.658013+00:00",
        "meta_object_name": "COSMOS 2251 DEB",
        "meta_object_id": "1993-036WK",
        "meta_epoch": "2025-12-18T23:21:59.727744",
        "meta_mean_motion": 14.17670739,
        "meta_eccentricity": 0.0197223,
        "meta_inclination": 73.8822,
        "meta_ra_of_asc_node": 332.666,
        "meta_arg_of_pericenter": 325.6345,
        "meta_mean_anomaly": 63.1604,
        "meta_ephemeris_type": 0,
        "meta_classification_type": "U",
        "meta_norad_cat_id": 34614,
        "meta_element_set_no": 999,
        "meta_rev_at_epoch": 84855,
        "meta_bstar": 0.0046815228,
        "meta_mean_motion_dot": 0.00011531,
        "meta_mean_motion_ddot": 0,
        "tle_line1": "1 34614U 93036WK  25352.97360796  .00011531  00000+0  46815-2 0  9999",
        "tle_line2": "2 34614  73.8822 332.6660 0197223 325.6345  63.1604 14.17670739848553"
      },
      "geometry": {
        "type": "Point",
        "coordinates": [
          144.96061893995318,
          21.052096955348542
        ]
      }
    }
  ]
}